FENGYUN 1C DEB          
1 37464U 99025EJJ 26090.61530270  .00002298  00000+0  20528-2 0  9999
2 37464 102.7112  49.2065 0451136 239.1375 116.4636 13.47949926623884
FENGYUN 1C DEB          
1 37470U 99025EJQ 26092.89414948  .00608180  00000+0  16185-1 0  9996
2 37470  98.6658 256.6790 0010374 275.4404  84.5652 15.36044485671443
FENGYUN 1C DEB          
1 37474U 99025EJU 26094.89235271  .00013334  00000+0  16349-2 0  9996
2 37474  99.1577 320.2046 0127118 142.6963 218.3157 14.77641437640453
FENGYUN 1C DEB          
1 37476U 99025EJW 26089.22485995  .00003011  00000+0  78627-2 0  9997
2 37476  98.9412  84.3517 1076572  17.1232 346.3368 11.91407243687235
FENGYUN 1C DEB          
1 37477U 99025EJX 26094.27490921  .00001837  00000+0  87641-3 0  9995
2 37477  98.6115 100.8409 0038025 140.5216 219.8742 14.20043581835118
FENGYUN 1C DEB          
1 37478U 99025EJY 26095.18391730  .00002322  00000+0  36437-2 0  9991
2 37478  99.6562  71.0205 0547846  57.7358 307.5632 13.03386035580395
FENGYUN 1C DEB          
1 37589U 99025EKH 26093.01976501  .00008965  00000+0  48341-2 0  9995
2 37589  99.0743   1.3593 0118280 312.8821  46.2463 14.09423936841517
FENGYUN 1C DEB          
1 37591U 99025EKK 26091.13124760  .00037442  00000+0  79194-2 0  9993
2 37591  98.4108  43.1560 0070650  18.5278 356.4901 14.57568595680563
FENGYUN 1C DEB          
1 37594U 99025EKN 26092.79278594  .00000488  00000+0  28494-3 0  9992
2 37594  98.7206 124.0472 0084707 315.2032  44.2321 14.11238952793285
FENGYUN 1C DEB          
1 37595U 99025EKP 26094.59565574  .00046315  00000+0  62164-2 0  9990
2 37595  99.0463 322.0599 0023238  14.4357  15.7648 14.78949371642695
FENGYUN 1C DEB          
1 37600U 99025EKU 26092.24168410  .00010678  00000+0  58186-2 0  9997
2 37600  98.9350 248.6559 0357185 111.5905 252.3704 13.84451042900152
FENGYUN 1C DEB          
1 37683U 99025EKY 26091.48970310  .00001056  00000+0  86350-3 0  9998
2 37683  97.9997 352.7104 0580680 205.4484 337.0275 13.32517524307016
FENGYUN 1C DEB          
1 37686U 99025ELB 26092.31412201  .00000473  00000+0  63829-3 0  9992
2 37686  99.0170 103.1215 0396664 127.7732 253.7833 13.35467109621036
FENGYUN 1C DEB          
1 37687U 99025ELC 26093.33377374  .00010526  00000+0  58682-2 0  9997
2 37687  98.1880 119.8609 0333108  51.5351 325.1461 13.86527223848000
FENGYUN 1C DEB          
1 37689U 99025ELE 26093.10621343  .00017209  00000+0  43623-2 0  9996
2 37689  98.9114 145.4181 0018010 257.2212 102.6968 14.50801204594265
FENGYUN 1C DEB          
1 37691U 99025ELG 26094.48944374  .00022946  00000+0  27274-2 0  9991
2 37691  98.3668   4.4264 0263350 159.5076 201.6932 14.62652367872798
