[{"OBJECT_NAME":"FENGYUN 1C DEB","OBJECT_ID":"1999-025EJJ","EPOCH":"2026-03-31T14:46:02.153280","MEAN_MOTION":13.47949926,"ECCENTRICITY":0.04511368,"INCLINATION":102.7112,"RA_OF_ASC_NODE":49.2065,"ARG_OF_PERICENTER":239.1375,"MEAN_ANOMALY":116.4636,"EPHEMERIS_TYPE":0,"CLASSIFICATION_TYPE":"U","NORAD_CAT_ID":37464,"ELEMENT_SET_NO":999,"REV_AT_EPOCH":62388,"BSTAR":0.0020527989,"MEAN_MOTION_DOT":2.298e-5,"MEAN_MOTION_DDOT":0},{"OBJECT_NAME":"FENGYUN 1C DEB","OBJECT_ID":"1999-025EJQ","EPOCH":"2026-04-02T21:27:34.515072","MEAN_MOTION":15.36044485,"ECCENTRICITY":0.00103744,"INCLINATION":98.6658,"RA_OF_ASC_NODE":256.679,"ARG_OF_PERICENTER":275.4404,"MEAN_ANOMALY":84.5652,"EPHEMERIS_TYPE":0,"CLASSIFICATION_TYPE":"U","NORAD_CAT_ID":37470,"ELEMENT_SET_NO":999,"REV_AT_EPOCH":67144,"BSTAR":0.016185474,"MEAN_MOTION_DOT":0.0060818,"MEAN_MOTION_DDOT":0},{"OBJECT_NAME":"FENGYUN 1C DEB","OBJECT_ID":"1999-025EJU","EPOCH":"2026-04-04T21:24:59.274144","MEAN_MOTION":14.77641437,"ECCENTRICITY":0.01271187,"INCLINATION":99.1577,"RA_OF_ASC_NODE":320.2046,"ARG_OF_PERICENTER":142.6963,"MEAN_ANOMALY":218.3157,"EPHEMERIS_TYPE":0,"CLASSIFICATION_TYPE":"U","NORAD_CAT_ID":37474,"ELEMENT_SET_NO":999,"REV_AT_EPOCH":64045,"BSTAR":0.0016348647,"MEAN_MOTION_DOT":0.00013334,"MEAN_MOTION_DDOT":0},{"OBJECT_NAME":"FENGYUN 1C DEB","OBJECT_ID":"1999-025EJW","EPOCH":"2026-03-30T05:23:47.899680","MEAN_MOTION":11.91407243,"ECCENTRICITY":0.10765721,"INCLINATION":98.9412,"RA_OF_ASC_NODE":84.3517,"ARG_OF_PERICENTER":17.1232,"MEAN_ANOMALY":346.3368,"EPHEMERIS_TYPE":0,"CLASSIFICATION_TYPE":"U","NORAD_CAT_ID":37476,"ELEMENT_SET_NO":999,"REV_AT_EPOCH":68723,"BSTAR":0.0078626669,"MEAN_MOTION_DOT":3.011e-5,"MEAN_MOTION_DDOT":0},{"OBJECT_NAME":"FENGYUN 1C DEB","OBJECT_ID":"1999-025EJX","EPOCH":"2026-04-04T06:35:52.155744","MEAN_MOTION":14.20043581,"ECCENTRICITY":0.0038025,"INCLINATION":98.6115,"RA_OF_ASC_NODE":100.8409,"ARG_OF_PERICENTER":140.5216,"MEAN_ANOMALY":219.8742,"EPHEMERIS_TYPE":0,"CLASSIFICATION_TYPE":"U","NORAD_CAT_ID":37477,"ELEMENT_SET_NO":999,"REV_AT_EPOCH":83511,"BSTAR":0.0008764139,"MEAN_MOTION_DOT":1.837e-5,"MEAN_MOTION_DDOT":0},{"OBJECT_NAME":"FENGYUN 1C DEB","OBJECT_ID":"1999-025EJY","EPOCH":"2026-04-05T04:24:50.454720","MEAN_MOTION":13.03386035,"ECCENTRICITY":0.0547846,"INCLINATION":99.6562,"RA_OF_ASC_NODE":71.0205,"ARG_OF_PERICENTER":57.7358,"MEAN_ANOMALY":307.5632,"EPHEMERIS_TYPE":0,"CLASSIFICATION_TYPE":"U","NORAD_CAT_ID":37478,"ELEMENT_SET_NO":999,"REV_AT_EPOCH":58039,"BSTAR":0.0036436958,"MEAN_MOTION_DOT":2.322e-5,"MEAN_MOTION_DDOT":0},{"OBJECT_NAME":"FENGYUN 1C DEB","OBJECT_ID":"1999-025EKH","EPOCH":"2026-04-03T00:28:27.696864","MEAN_MOTION":14.09423936,"ECCENTRICITY":0.01182809,"INCLINATION":99.0743,"RA_OF_ASC_NODE":1.3593,"ARG_OF_PERICENTER":312.8821,"MEAN_ANOMALY":46.2463,"EPHEMERIS_TYPE":0,"CLASSIFICATION_TYPE":"U","NORAD_CAT_ID":37589,"ELEMENT_SET_NO":999,"REV_AT_EPOCH":84151,"BSTAR":0.0048341456,"MEAN_MOTION_DOT":8.965e-5,"MEAN_MOTION_DDOT":0},{"OBJECT_NAME":"FENGYUN 1C DEB","OBJECT_ID":"1999-025EKK","EPOCH":"2026-04-01T03:08:59.792640","MEAN_MOTION":14.57568595,"ECCENTRICITY":0.00706505,"INCLINATION":98.4108,"RA_OF_ASC_NODE":43.156,"ARG_OF_PERICENTER":18.5278,"MEAN_ANOMALY":356.4901,"EPHEMERIS_TYPE":0,"CLASSIFICATION_TYPE":"U","NORAD_CAT_ID":37591,"ELEMENT_SET_NO":999,"REV_AT_EPOCH":68056,"BSTAR":0.0079193793,"MEAN_MOTION_DOT":0.00037442,"MEAN_MOTION_DDOT":0},{"OBJECT_NAME":"FENGYUN 1C DEB","OBJECT_ID":"1999-025EKN","EPOCH":"2026-04-02T19:01:36.705216","MEAN_MOTION":14.11238952,"ECCENTRICITY":0.00847079,"INCLINATION":98.7206,"RA_OF_ASC_NODE":124.0472,"ARG_OF_PERICENTER":315.2032,"MEAN_ANOMALY":44.2321,"EPHEMERIS_TYPE":0,"CLASSIFICATION_TYPE":"U","NORAD_CAT_ID":37594,"ELEMENT_SET_NO":999,"REV_AT_EPOCH":79328,"BSTAR":0.0002849419,"MEAN_MOTION_DOT":4.88e-6,"MEAN_MOTION_DDOT":0},{"OBJECT_NAME":"FENGYUN 1C DEB","OBJECT_ID":"1999-025EKP","EPOCH":"2026-04-04T14:17:44.655936","MEAN_MOTION":14.78949371,"ECCENTRICITY":0.0023238,"INCLINATION":99.0463,"RA_OF_ASC_NODE":322.0599,"ARG_OF_PERICENTER":14.4357,"MEAN_ANOMALY":15.7648,"EPHEMERIS_TYPE":0,"CLASSIFICATION_TYPE":"U","NORAD_CAT_ID":37595,"ELEMENT_SET_NO":999,"REV_AT_EPOCH":64269,"BSTAR":0.0062164,"MEAN_MOTION_DOT":0.00046315,"MEAN_MOTION_DDOT":0},{"OBJECT_NAME":"FENGYUN 1C DEB","OBJECT_ID":"1999-025EKU","EPOCH":"2026-04-02T05:48:01.506240","MEAN_MOTION":13.84451042,"ECCENTRICITY":0.03571859,"INCLINATION":98.935,"RA_OF_ASC_NODE":248.6559,"ARG_OF_PERICENTER":111.5905,"MEAN_ANOMALY":252.3704,"EPHEMERIS_TYPE":0,"CLASSIFICATION_TYPE":"U","NORAD_CAT_ID":37600,"ELEMENT_SET_NO":999,"REV_AT_EPOCH":90015,"BSTAR":0.0058186186,"MEAN_MOTION_DOT":0.00010678,"MEAN_MOTION_DDOT":0},{"OBJECT_NAME":"FENGYUN 1C DEB","OBJECT_ID":"1999-025EKY","EPOCH":"2026-04-01T11:45:10.347840","MEAN_MOTION":13.32517524,"ECCENTRICITY":0.05806808,"INCLINATION":97.9997,"RA_OF_ASC_NODE":352.7104,"ARG_OF_PERICENTER":205.4484,"MEAN_ANOMALY":337.0275,"EPHEMERIS_TYPE":0,"CLASSIFICATION_TYPE":"U","NORAD_CAT_ID":37683,"ELEMENT_SET_NO":999,"REV_AT_EPOCH":30701,"BSTAR":0.00086349565,"MEAN_MOTION_DOT":1.056e-5,"MEAN_MOTION_DDOT":0},{"OBJECT_NAME":"FENGYUN 1C DEB","OBJECT_ID":"1999-025ELB","EPOCH":"2026-04-02T07:32:20.141664","MEAN_MOTION":13.35467109,"ECCENTRICITY":0.03966647,"INCLINATION":99.017,"RA_OF_ASC_NODE":103.1215,"ARG_OF_PERICENTER":127.7732,"MEAN_ANOMALY":253.7833,"EPHEMERIS_TYPE":0,"CLASSIFICATION_TYPE":"U","NORAD_CAT_ID":37686,"ELEMENT_SET_NO":999,"REV_AT_EPOCH":62103,"BSTAR":0.00063829022,"MEAN_MOTION_DOT":4.73e-6,"MEAN_MOTION_DDOT":0},{"OBJECT_NAME":"FENGYUN 1C DEB","OBJECT_ID":"1999-025ELC","EPOCH":"2026-04-03T08:00:38.051136","MEAN_MOTION":13.86527223,"ECCENTRICITY":0.0333108,"INCLINATION":98.188,"RA_OF_ASC_NODE":119.8609,"ARG_OF_PERICENTER":51.5351,"MEAN_ANOMALY":325.1461,"EPHEMERIS_TYPE":0,"CLASSIFICATION_TYPE":"U","NORAD_CAT_ID":37687,"ELEMENT_SET_NO":999,"REV_AT_EPOCH":84800,"BSTAR":0.0058682,"MEAN_MOTION_DOT":0.00010526,"MEAN_MOTION_DDOT":0},{"OBJECT_NAME":"FENGYUN 1C DEB","OBJECT_ID":"1999-025ELE","EPOCH":"2026-04-03T02:32:56.840352","MEAN_MOTION":14.50801204,"ECCENTRICITY":0.00180105,"INCLINATION":98.9114,"RA_OF_ASC_NODE":145.4181,"ARG_OF_PERICENTER":257.2212,"MEAN_ANOMALY":102.6968,"EPHEMERIS_TYPE":0,"CLASSIFICATION_TYPE":"U","NORAD_CAT_ID":37689,"ELEMENT_SET_NO":999,"REV_AT_EPOCH":59426,"BSTAR":0.0043623492,"MEAN_MOTION_DOT":0.00017209,"MEAN_MOTION_DDOT":0},{"OBJECT_NAME":"FENGYUN 1C DEB","OBJECT_ID":"1999-025ELG","EPOCH":"2026-04-04T11:44:47.939136","MEAN_MOTION":14.62652367,"ECCENTRICITY":0.02633507,"INCLINATION":98.3668,"RA_OF_ASC_NODE":4.4264,"ARG_OF_PERICENTER":159.5076,"MEAN_ANOMALY":201.6932,"EPHEMERIS_TYPE":0,"CLASSIFICATION_TYPE":"U","NORAD_CAT_ID":37691,"ELEMENT_SET_NO":999,"REV_AT_EPOCH":87279,"BSTAR":0.0027273709,"MEAN_MOTION_DOT":0.00022946,"MEAN_MOTION_DDOT":0}]
